{"type": "FeatureCollection", "features": [ {"type": "Feature", "properties": {"norad_id": 66668, "name": "TRANSPORTER-15C", "group": "last-30-days", "lat": -59.43259205947688, "lon": -119.63481190427332, "alt_km": 496.12878023391295, "timestamp": "2025-12-27T16:33:28.971567+00:00", "meta": {"OBJECT_NAME": "TRANSPORTER-15C", "OBJECT_ID": "2025-276C", "EPOCH": "2025-12-26T12:40:51.383136", "MEAN_MOTION": 15.21988406, "ECCENTRICITY": 0.0016178, "INCLINATION": 97.4332, "RA_OF_ASC_NODE": 71.9879, "ARG_OF_PERICENTER": 258.9437, "MEAN_ANOMALY": 100.9979, "EPHEMERIS_TYPE": 0, "CLASSIFICATION_TYPE": "U", "NORAD_CAT_ID": 66668, "ELEMENT_SET_NO": 999, "REV_AT_EPOCH": 421, "BSTAR": 0.00071782, "MEAN_MOTION_DOT": 0.00016393, "MEAN_MOTION_DDOT": 0}, "tle": {"line1": "1 66668U 25276C   25360.52837249  .00016393  00000+0  71782-3 0  9999", "line2": "2 66668  97.4332  71.9879 0016178 258.9437 100.9979 15.21988406  4210"}}, "geometry": {"type": "Point", "coordinates": [-119.63481190427332, -59.43259205947688]}}, {"type": "Feature", "properties": {"norad_id": 66669, "name": "TRANSPORTER-15D", "group": "last-30-days", "lat": -33.44266499811666, "lon": -111.81306287273532, "alt_km": 515.4232983075599, "timestamp": "2025-12-27T16:33:28.971577+00:00", "meta": {"OBJECT_NAME": "TRANSPORTER-15D", "OBJECT_ID": "2025-276D", "EPOCH": "2025-12-26T04:48:12.178080", "MEAN_MOTION": 15.17501415, "ECCENTRICITY": 0.000747, "INCLINATION": 97.4282, "RA_OF_ASC_NODE": 71.6689, "ARG_OF_PERICENTER": 258.0077, "MEAN_ANOMALY": 102.032, "EPHEMERIS_TYPE": 0, "CLASSIFICATION_TYPE": "U", "NORAD_CAT_ID": 66669, "ELEMENT_SET_NO": 999, "REV_AT_EPOCH": 416, "BSTAR": 0.0012, "MEAN_MOTION_DOT": 0.00024063, "MEAN_MOTION_DDOT": 0}, "tle": {"line1": "1 66669U 25276D   25360.20014095  .00024063  00000+0  12000-2 0  9991", "line2": "2 66669  97.4282  71.6689 0007470 258.0077 102.0320 15.17501415  4160"}}, "geometry": {"type": "Point", "coordinates": [-111.81306287273532, -33.44266499811666]}}, {"type": "Feature", "properties": {"norad_id": 66670, "name": "HUNITY", "group": "last-30-days", "lat": -28.854715075945474, "lon": -110.9915723161994, "alt_km": 515.804705503705, "timestamp": "2025-12-27T16:33:28.971587+00:00", "meta": {"OBJECT_NAME": "HUNITY", "OBJECT_ID": "2025-276E", "EPOCH": "2025-12-26T19:03:55.659744", "MEAN_MOTION": 15.1744087, "ECCENTRICITY": 0.0007097, "INCLINATION": 97.4293, "RA_OF_ASC_NODE": 72.2531, "ARG_OF_PERICENTER": 255.1008, "MEAN_ANOMALY": 104.944, "EPHEMERIS_TYPE": 0, "CLASSIFICATION_TYPE": "U", "NORAD_CAT_ID": 66670, "ELEMENT_SET_NO": 999, "REV_AT_EPOCH": 425, "BSTAR": 0.0013401, "MEAN_MOTION_DOT": 0.00026842, "MEAN_MOTION_DDOT": 0}, "tle": {"line1": "1 66670U 25276E   25360.79439421  .00026842  00000+0  13401-2 0  9994", "line2": "2 66670  97.4293  72.2531 0007097 255.1008 104.9440 15.17440870  4255"}}, "geometry": {"type": "Point", "coordinates": [-110.9915723161994, -28.854715075945474]}}, {"type": "Feature", "properties": {"norad_id": 66671, "name": "TRANSPORTER-15F", "group": "last-30-days", "lat": -36.80251743850587, "lon": -112.43428597076628, "alt_km": 517.1201917654416, "timestamp": "2025-12-27T16:33:28.971599+00:00", "meta": {"OBJECT_NAME": "TRANSPORTER-15F", "OBJECT_ID": "2025-276F", "EPOCH": "2025-12-27T10:51:19.617696", "MEAN_MOTION": 15.17232969, "ECCENTRICITY": 0.0005223, "INCLINATION": 97.4415, "RA_OF_ASC_NODE": 72.9442, "ARG_OF_PERICENTER": 232.0506, "MEAN_ANOMALY": 128.0256, "EPHEMERIS_TYPE": 0, "CLASSIFICATION_TYPE": "U", "NORAD_CAT_ID": 66671, "ELEMENT_SET_NO": 999, "REV_AT_EPOCH": 435, "BSTAR": 0.00068004, "MEAN_MOTION_DOT": 0.00013479, "MEAN_MOTION_DDOT": 0}, "tle": {"line1": "1 66671U 25276F   25361.45231039  .00013479  00000+0  68004-3 0  9996", "line2": "2 66671  97.4415  72.9442 0005223 232.0506 128.0256 15.17232969  4357"}}, "geometry": {"type": "Point", "coordinates": [-112.43428597076628, -36.80251743850587]}}, {"type": "Feature", "properties": {"norad_id": 66672, "name": "TRANSPORTER-15G", "group": "last-30-days", "lat": -1.738179374406008, "lon": -107.07408026265786, "alt_km": 516.6042287043692, "timestamp": "2025-12-27T16:33:28.971610+00:00", "meta": {"OBJECT_NAME": "TRANSPORTER-15G", "OBJECT_ID": "2025-276G", "EPOCH": "2025-12-27T11:00:32.505120", "MEAN_MOTION": 15.1666888, "ECCENTRICITY": 0.0005582, "INCLINATION": 97.4389, "RA_OF_ASC_NODE": 72.9263, "ARG_OF_PERICENTER": 229.8107, "MEAN_ANOMALY": 130.2638, "EPHEMERIS_TYPE": 0, "CLASSIFICATION_TYPE": "U", "NORAD_CAT_ID": 66672, "ELEMENT_SET_NO": 999, "REV_AT_EPOCH": 435, "BSTAR": 0.00049641, "MEAN_MOTION_DOT": 9.659e-05, "MEAN_MOTION_DDOT": 0}, "tle": {"line1": "1 66672U 25276G   25361.45870955  .00009659  00000+0  49641-3 0  9994", "line2": "2 66672  97.4389  72.9263 0005582 229.8107 130.2638 15.16668880  4351"}}, "geometry": {"type": "Point", "coordinates": [-107.07408026265786, -1.738179374406008]}}, {"type": "Feature", "properties": {"norad_id": 66673, "name": "TRANSPORTER-15H", "group": "last-30-days", "lat": -74.6516417772278, "lon": -135.25003416638464, "alt_km": 499.6965406451827, "timestamp": "2025-12-27T16:33:28.971620+00:00", "meta": {"OBJECT_NAME": "TRANSPORTER-15H", "OBJECT_ID": "2025-276H", "EPOCH": "2025-12-27T09:06:45.578880", "MEAN_MOTION": 15.20590437, "ECCENTRICITY": 0.0023173, "INCLINATION": 97.4328, "RA_OF_ASC_NODE": 72.8449, "ARG_OF_PERICENTER": 289.0638, "MEAN_ANOMALY": 70.8087, "EPHEMERIS_TYPE": 0, "CLASSIFICATION_TYPE": "U", "NORAD_CAT_ID": 66673, "ELEMENT_SET_NO": 999, "REV_AT_EPOCH": 434, "BSTAR": -0.046481, "MEAN_MOTION_DOT": -0.00950427, "MEAN_MOTION_DDOT": 0}, "tle": {"line1": "1 66673U 25276H   25361.37969420 -.00950427  00000+0 -46481-1 0  9999", "line2": "2 66673  97.4328  72.8449 0023173 289.0638  70.8087 15.20590437  4346"}}, "geometry": {"type": "Point", "coordinates": [-135.25003416638464, -74.6516417772278]}}, {"type": "Feature", "properties": {"norad_id": 66674, "name": "TRANSPORTER-15J", "group": "last-30-days", "lat": -13.332279131019643, "lon": -108.62351005882486, "alt_km": 517.4453586882564, "timestamp": "2025-12-27T16:33:28.971632+00:00", "meta": {"OBJECT_NAME": "TRANSPORTER-15J", "OBJECT_ID": "2025-276J", "EPOCH": "2025-12-27T10:57:29.104704", "MEAN_MOTION": 15.1679024, "ECCENTRICITY": 0.0005131, "INCLINATION": 97.4367, "RA_OF_ASC_NODE": 72.9215, "ARG_OF_PERICENTER": 233.6082, "MEAN_ANOMALY": 126.4679, "EPHEMERIS_TYPE": 0, "CLASSIFICATION_TYPE": "U", "NORAD_CAT_ID": 66674, "ELEMENT_SET_NO": 999, "REV_AT_EPOCH": 435, "BSTAR": 0.00045077, "MEAN_MOTION_DOT": 8.794e-05, "MEAN_MOTION_DDOT": 0}, "tle": {"line1": "1 66674U 25276J   25361.45658686  .00008794  00000+0  45077-3 0  9999", "line2": "2 66674  97.4367  72.9215 0005131 233.6082 126.4679 15.16790240  4359"}}, "geometry": {"type": "Point", "coordinates": [-108.62351005882486, -13.332279131019643]}}, {"type": "Feature", "properties": {"norad_id": 66675, "name": "TRANSPORTER-15K", "group": "last-30-days", "lat": -14.781694580218854, "lon": -108.82058351921137, "alt_km": 529.7735959340134, "timestamp": "2025-12-27T16:33:28.971642+00:00", "meta": {"OBJECT_NAME": "TRANSPORTER-15K", "OBJECT_ID": "2025-276K", "EPOCH": "2025-12-26T22:14:18.407616", "MEAN_MOTION": 15.14108486, "ECCENTRICITY": 0.0013986, "INCLINATION": 97.4377, "RA_OF_ASC_NODE": 72.4107, "ARG_OF_PERICENTER": 151.0165, "MEAN_ANOMALY": 209.1846, "EPHEMERIS_TYPE": 0, "CLASSIFICATION_TYPE": "U", "NORAD_CAT_ID": 66675, "ELEMENT_SET_NO": 999, "REV_AT_EPOCH": 427, "BSTAR": -0.095744, "MEAN_MOTION_DOT": -0.01588729, "MEAN_MOTION_DDOT": 0}, "tle": {"line1": "1 66675U 25276K   25360.92660194 -.01588729  00000+0 -95744-1 0  9996", "line2": "2 66675  97.4377  72.4107 0013986 151.0165 209.1846 15.14108486  4277"}}, "geometry": {"type": "Point", "coordinates": [-108.82058351921137, -14.781694580218854]}}, {"type": "Feature", "properties": {"norad_id": 66676, "name": "TRANSPORTER-15L", "group": "last-30-days", "lat": -37.36038120813822, "lon": -112.55610801290257, "alt_km": 489.1368116486947, "timestamp": "2025-12-27T16:33:28.971664+00:00", "meta": {"OBJECT_NAME": "TRANSPORTER-15L", "OBJECT_ID": "2025-276L", "EPOCH": "2025-12-27T06:08:24.691776", "MEAN_MOTION": 15.2229433, "ECCENTRICITY": 0.0024796, "INCLINATION": 97.4375, "RA_OF_ASC_NODE": 72.7381, "ARG_OF_PERICENTER": 254.3833, "MEAN_ANOMALY": 105.4666, "EPHEMERIS_TYPE": 0, "CLASSIFICATION_TYPE": "U", "NORAD_CAT_ID": 66676, "ELEMENT_SET_NO": 999, "REV_AT_EPOCH": 432, "BSTAR": 0.038399, "MEAN_MOTION_DOT": 0.00963103, "MEAN_MOTION_DDOT": 0}, "tle": {"line1": "1 66676U 25276L   25361.25584134  .00963103  00000+0  38399-1 0  9996", "line2": "2 66676  97.4375  72.7381 0024796 254.3833 105.4666 15.22294330  4320"}}, "geometry": {"type": "Point", "coordinates": [-112.55610801290257, -37.36038120813822]}}, {"type": "Feature", "properties": {"norad_id": 66677, "name": "TRANSPORTER-15M", "group": "last-30-days", "lat": -70.12452407361582, "lon": -128.0067661847331, "alt_km": 517.1745094641092, "timestamp": "2025-12-27T16:33:28.971676+00:00", "meta": {"OBJECT_NAME": "TRANSPORTER-15M", "OBJECT_ID": "2025-276M", "EPOCH": "2025-12-27T09:07:24.616128", "MEAN_MOTION": 15.17651336, "ECCENTRICITY": 0.0004313, "INCLINATION": 97.4376, "RA_OF_ASC_NODE": 72.8727, "ARG_OF_PERICENTER": 249.8768, "MEAN_ANOMALY": 110.2002, "EPHEMERIS_TYPE": 0, "CLASSIFICATION_TYPE": "U", "NORAD_CAT_ID": 66677, "ELEMENT_SET_NO": 999, "REV_AT_EPOCH": 434, "BSTAR": 0.0025152, "MEAN_MOTION_DOT": 0.00050887, "MEAN_MOTION_DDOT": 0}, "tle": {"line1": "1 66677U 25276M   25361.38014602  .00050887  00000+0  25152-2 0  9999", "line2": "2 66677  97.4376  72.8727 0004313 249.8768 110.2002 15.17651336  4343"}}, "geometry": {"type": "Point", "coordinates": [-128.0067661847331, -70.12452407361582]}}]}